[{"OBJECT_NAME":"STARLINK-4621","OBJECT_ID":"2022-105AE","EPOCH":"2026-03-09T16:00:46.917216","MEAN_MOTION":15.01252403,"ECCENTRICITY":0.00033108,"INCLINATION":97.601,"RA_OF_ASC_NODE":310.1897,"ARG_OF_PERICENTER":33.3535,"MEAN_ANOMALY":326.7897,"EPHEMERIS_TYPE":0,"CLASSIFICATION_TYPE":"U","NORAD_CAT_ID":53676,"ELEMENT_SET_NO":999,"REV_AT_EPOCH":19323,"BSTAR":-7.6560656e-5,"MEAN_MOTION_DOT":-1.041e-5,"MEAN_MOTION_DDOT":0},{"OBJECT_NAME":"CURIUM ONE","OBJECT_ID":"2024-128H","EPOCH":"2026-03-09T16:29:14.303904","MEAN_MOTION":15.10847276,"ECCENTRICITY":0.00508907,"INCLINATION":61.979,"RA_OF_ASC_NODE":197.7537,"ARG_OF_PERICENTER":110.7183,"MEAN_ANOMALY":249.9377,"EPHEMERIS_TYPE":0,"CLASSIFICATION_TYPE":"U","NORAD_CAT_ID":60242,"ELEMENT_SET_NO":999,"REV_AT_EPOCH":9141,"BSTAR":0.00074106619,"MEAN_MOTION_DOT":0.00012574,"MEAN_MOTION_DDOT":0}]
